[{"OBJECT_NAME":"YAOGAN-28","OBJECT_ID":"2015-064A","EPOCH":"2026-03-09T23:07:10.370208","MEAN_MOTION":15.26008,"ECCENTRICITY":0.00111911,"INCLINATION":97.2901,"RA_OF_ASC_NODE":209.4389,"ARG_OF_PERICENTER":175.4532,"MEAN_ANOMALY":184.6811,"EPHEMERIS_TYPE":0,"CLASSIFICATION_TYPE":"U","NORAD_CAT_ID":41026,"ELEMENT_SET_NO":999,"REV_AT_EPOCH":57554,"BSTAR":0.00039691695,"MEAN_MOTION_DOT":0.00010159,"MEAN_MOTION_DDOT":0},{"OBJECT_NAME":"STARLINK-35588","OBJECT_ID":"2025-259C","EPOCH":"2026-03-09T20:14:27.208608","MEAN_MOTION":15.27589023,"ECCENTRICITY":0.00022179,"INCLINATION":43.0007,"RA_OF_ASC_NODE":273.5851,"ARG_OF_PERICENTER":275.2153,"MEAN_ANOMALY":84.8446,"EPHEMERIS_TYPE":0,"CLASSIFICATION_TYPE":"U","NORAD_CAT_ID":66424,"ELEMENT_SET_NO":999,"REV_AT_EPOCH":1951,"BSTAR":0.0011115386,"MEAN_MOTION_DOT":0.00030461,"MEAN_MOTION_DDOT":0}]
